{
  "type": "FeatureCollection",
  "features": [
    {
      "type": "Feature",
      "properties": {
        "norad_id": 66592,
        "name": "STARLINK-36066",
        "group": "last-30-days",
        "lat": -9.247459051066237,
        "lon": 58.965914754848725,
        "alt_km": 364.0322061836623,
        "timestamp": "2025-12-06T14:35:35.910937+00:00",
        "meta_object_name": "STARLINK-36066",
        "meta_object_id": "2025-270E",
        "meta_epoch": "2025-12-06T06:00:02.000160",
        "meta_mean_motion": 15.69883442,
        "meta_eccentricity": 0.00017186,
        "meta_inclination": 42.9989,
        "meta_ra_of_asc_node": 231.0566,
        "meta_arg_of_pericenter": 264.29,
        "meta_mean_anomaly": 64.3327,
        "meta_ephemeris_type": 0,
        "meta_classification_type": "U",
        "meta_norad_cat_id": 66592,
        "meta_element_set_no": 999,
        "meta_rev_at_epoch": 325,
        "meta_bstar": -0.017254704,
        "meta_mean_motion_dot": -0.01889511,
        "meta_mean_motion_ddot": 0,
        "tle_line1": "1 66592U 25270E   25340.25002315 -.01889511  00000+0 -17255-1 0  9991",
        "tle_line2": "2 66592  42.9989 231.0566 0001718 264.2900  64.3327 15.69883442  3259"
      },
      "geometry": {
        "type": "Point",
        "coordinates": [
          58.965914754848725,
          -9.247459051066237
        ]
      }
    },
    {
      "type": "Feature",
      "properties": {
        "norad_id": 66593,
        "name": "STARLINK-36031",
        "group": "last-30-days",
        "lat": -10.530782709032911,
        "lon": 60.40594730915079,
        "alt_km": 364.2003511322064,
        "timestamp": "2025-12-06T14:35:35.910947+00:00",
        "meta_object_name": "STARLINK-36031",
        "meta_object_id": "2025-270F",
        "meta_epoch": "2025-12-06T06:00:02.000160",
        "meta_mean_motion": 15.69881766,
        "meta_eccentricity": 0.00017537,
        "meta_inclination": 42.9989,
        "meta_ra_of_asc_node": 231.0519,
        "meta_arg_of_pericenter": 267.3865,
        "meta_mean_anomaly": 63.1548,
        "meta_ephemeris_type": 0,
        "meta_classification_type": "U",
        "meta_norad_cat_id": 66593,
        "meta_element_set_no": 999,
        "meta_rev_at_epoch": 335,
        "meta_bstar": -0.01723746,
        "meta_mean_motion_dot": -0.01887742,
        "meta_mean_motion_ddot": 0,
        "tle_line1": "1 66593U 25270F   25340.25002315 -.01887742  00000+0 -17237-1 0  9996",
        "tle_line2": "2 66593  42.9989 231.0519 0001753 267.3865  63.1548 15.69881766  3351"
      },
      "geometry": {
        "type": "Point",
        "coordinates": [
          60.40594730915079,
          -10.530782709032911
        ]
      }
    },
    {
      "type": "Feature",
      "properties": {
        "norad_id": 66594,
        "name": "STARLINK-36032",
        "group": "last-30-days",
        "lat": -11.808457394910738,
        "lon": 61.85898648050514,
        "alt_km": 364.23626041043735,
        "timestamp": "2025-12-06T14:35:35.910957+00:00",
        "meta_object_name": "STARLINK-36032",
        "meta_object_id": "2025-270G",
        "meta_epoch": "2025-12-06T06:00:02.000160",
        "meta_mean_motion": 15.69884529,
        "meta_eccentricity": 0.00016412,
        "meta_inclination": 42.9992,
        "meta_ra_of_asc_node": 231.0472,
        "meta_arg_of_pericenter": 264.239,
        "meta_mean_anomaly": 68.216,
        "meta_ephemeris_type": 0,
        "meta_classification_type": "U",
        "meta_norad_cat_id": 66594,
        "meta_element_set_no": 999,
        "meta_rev_at_epoch": 309,
        "meta_bstar": -0.017249781,
        "meta_mean_motion_dot": -0.01889051,
        "meta_mean_motion_ddot": 0,
        "tle_line1": "1 66594U 25270G   25340.25002315 -.01889051  00000+0 -17250-1 0  9997",
        "tle_line2": "2 66594  42.9992 231.0472 0001641 264.2390  68.2160 15.69884529  3096"
      },
      "geometry": {
        "type": "Point",
        "coordinates": [
          61.85898648050514,
          -11.808457394910738
        ]
      }
    },
    {
      "type": "Feature",
      "properties": {
        "norad_id": 66595,
        "name": "STARLINK-35711",
        "group": "last-30-days",
        "lat": -13.077790894924457,
        "lon": 63.324083648619784,
        "alt_km": 364.3736225272187,
        "timestamp": "2025-12-06T14:35:35.910967+00:00",
        "meta_object_name": "STARLINK-35711",
        "meta_object_id": "2025-270H",
        "meta_epoch": "2025-12-06T06:00:02.000160",
        "meta_mean_motion": 15.6988264,
        "meta_eccentricity": 0.00017476,
        "meta_inclination": 42.999,
        "meta_ra_of_asc_node": 231.0417,
        "meta_arg_of_pericenter": 266.8477,
        "meta_mean_anomaly": 67.5295,
        "meta_ephemeris_type": 0,
        "meta_classification_type": "U",
        "meta_norad_cat_id": 66595,
        "meta_element_set_no": 999,
        "meta_rev_at_epoch": 346,
        "meta_bstar": -0.017271617,
        "meta_mean_motion_dot": -0.01891121,
        "meta_mean_motion_ddot": 0,
        "tle_line1": "1 66595U 25270H   25340.25002315 -.01891121  00000+0 -17272-1 0  9993",
        "tle_line2": "2 66595  42.9990 231.0417 0001747 266.8477  67.5295 15.69882640  3469"
      },
      "geometry": {
        "type": "Point",
        "coordinates": [
          63.324083648619784,
          -13.077790894924457
        ]
      }
    },
    {
      "type": "Feature",
      "properties": {
        "norad_id": 66596,
        "name": "STARLINK-35811",
        "group": "last-30-days",
        "lat": -14.338996456263553,
        "lon": 64.80571469333647,
        "alt_km": 364.4809842009254,
        "timestamp": "2025-12-06T14:35:35.910977+00:00",
        "meta_object_name": "STARLINK-35811",
        "meta_object_id": "2025-270J",
        "meta_epoch": "2025-12-06T06:00:02.000160",
        "meta_mean_motion": 15.69890812,
        "meta_eccentricity": 0.00016195,
        "meta_inclination": 42.9989,
        "meta_ra_of_asc_node": 231.0373,
        "meta_arg_of_pericenter": 266.7951,
        "meta_mean_anomaly": 69.4911,
        "meta_ephemeris_type": 0,
        "meta_classification_type": "U",
        "meta_norad_cat_id": 66596,
        "meta_element_set_no": 999,
        "meta_rev_at_epoch": 346,
        "meta_bstar": -0.017328834,
        "meta_mean_motion_dot": -0.01897164,
        "meta_mean_motion_ddot": 0,
        "tle_line1": "1 66596U 25270J   25340.25002315 -.01897164  00000+0 -17329-1 0  9990",
        "tle_line2": "2 66596  42.9989 231.0373 0001619 266.7951  69.4911 15.69890812  3469"
      },
      "geometry": {
        "type": "Point",
        "coordinates": [
          64.80571469333647,
          -14.338996456263553
        ]
      }
    },
    {
      "type": "Feature",
      "properties": {
        "norad_id": 66597,
        "name": "STARLINK-35820",
        "group": "last-30-days",
        "lat": -15.589886678336038,
        "lon": 66.30225424147393,
        "alt_km": 364.5240254162827,
        "timestamp": "2025-12-06T14:35:35.910987+00:00",
        "meta_object_name": "STARLINK-35820",
        "meta_object_id": "2025-270K",
        "meta_epoch": "2025-12-06T06:00:02.000160",
        "meta_mean_motion": 15.6988348,
        "meta_eccentricity": 0.00016998,
        "meta_inclination": 42.999,
        "meta_ra_of_asc_node": 231.0323,
        "meta_arg_of_pericenter": 266.0147,
        "meta_mean_anomaly": 72.1933,
        "meta_ephemeris_type": 0,
        "meta_classification_type": "U",
        "meta_norad_cat_id": 66597,
        "meta_element_set_no": 999,
        "meta_rev_at_epoch": 346,
        "meta_bstar": -0.017252068,
        "meta_mean_motion_dot": -0.01889243,
        "meta_mean_motion_ddot": 0,
        "tle_line1": "1 66597U 25270K   25340.25002315 -.01889243  00000+0 -17252-1 0  9995",
        "tle_line2": "2 66597  42.9990 231.0323 0001699 266.0147  72.1933 15.69883480  3463"
      },
      "geometry": {
        "type": "Point",
        "coordinates": [
          66.30225424147393,
          -15.589886678336038
        ]
      }
    },
    {
      "type": "Feature",
      "properties": {
        "norad_id": 66598,
        "name": "STARLINK-35981",
        "group": "last-30-days",
        "lat": -16.831259904451755,
        "lon": 67.81809000357048,
        "alt_km": 364.6133408566666,
        "timestamp": "2025-12-06T14:35:35.910997+00:00",
        "meta_object_name": "STARLINK-35981",
        "meta_object_id": "2025-270L",
        "meta_epoch": "2025-12-06T06:00:02.000160",
        "meta_mean_motion": 15.69879226,
        "meta_eccentricity": 0.00017011,
        "meta_inclination": 42.9991,
        "meta_ra_of_asc_node": 231.0273,
        "meta_arg_of_pericenter": 266.5795,
        "meta_mean_anomaly": 73.5486,
        "meta_ephemeris_type": 0,
        "meta_classification_type": "U",
        "meta_norad_cat_id": 66598,
        "meta_element_set_no": 999,
        "meta_rev_at_epoch": 319,
        "meta_bstar": -0.017202366,
        "meta_mean_motion_dot": -0.01884109,
        "meta_mean_motion_ddot": 0,
        "tle_line1": "1 66598U 25270L   25340.25002315 -.01884109  00000+0 -17202-1 0  9997",
        "tle_line2": "2 66598  42.9991 231.0273 0001701 266.5795  73.5486 15.69879226  3198"
      },
      "geometry": {
        "type": "Point",
        "coordinates": [
          67.81809000357048,
          -16.831259904451755
        ]
      }
    }
  ]
}